LYNK TOWER 5            
1 59121U 24043Z   26068.92489786  .00009048  00000+0  31902-3 0  9994
2 59121  97.5458 204.7305 0010406 234.6422 125.3846 15.29454506111860
STARLINK-33751          
1 63512U 25071V   26068.46812039  .00027272  00000+0  93016-3 0  9998
2 63512  53.1592 141.0777 0001197  85.3209 274.7928 15.30178554 52719
